NORAD_CAT_ID,OBJECT_NAME,OBJECT_TYPE,EPOCH,MEAN_MOTION,ECCENTRICITY,INCLINATION,RA_OF_ASC_NODE,ARG_OF_PERICENTER,MEAN_ANOMALY,BSTAR,MEAN_MOTION_DOT,MEAN_MOTION_DDOT,TLE_LINE0,TLE_LINE1,TLE_LINE2,SEMIMAJOR_AXIS,PERIOD,APOGEE,PERIGEE,DECAYED
52662.0,STARLINK-4044,PAYLOAD,2024-04-22 19:50:36,15.08820676,7.07e-05,53.2183,353.0776,81.0309,279.0763,7.6477e-05,9.29e-06,0.0,0 STARLINK-4044,1 52662U 22053G   24113.82681261  .00000929  00000-0  76477-4 0  9993,2 52662  53.2183 353.0776 0000707  81.0309 279.0763 15.08820676107501,6917.939,95.439,540.294,539.315,0.0
52662.0,STARLINK-4044,PAYLOAD,2024-04-23 02:12:09,15.0882387,7.96e-05,53.2189,351.8881,103.699,256.4091,0.00011495,1.541e-05,0.0,0 STARLINK-4044,1 52662U 22053G   24114.09177265  .00001541  00000-0  11495-3 0  9996,2 52662  53.2189 351.8881 0000796 103.6990 256.4091 15.08823870107541,6917.93,95.439,540.345,539.244,0.0
52662.0,STARLINK-4044,PAYLOAD,2024-04-23 21:16:47,15.08825987,7.87e-05,53.2188,348.3205,99.8339,260.2742,0.0002274,3.332e-05,0.0,0 STARLINK-4044,1 52662U 22053G   24114.88665664  .00003332  00000-0  22740-3 0  9993,2 52662  53.2188 348.3205 0000787  99.8339 260.2742 15.08825987107664,6917.923,95.438,540.333,539.244,0.0
52662.0,STARLINK-4044,PAYLOAD,2024-04-24 00:27:33,15.08827389,7.29e-05,53.2187,347.7253,83.6987,276.4088,0.00033334,5.02e-05,0.0,0 STARLINK-4044,1 52662U 22053G   24115.01913620  .00005020  00000-0  33334-3 0  9994,2 52662  53.2187 347.7253 0000729  83.6987 276.4088 15.08827389107687,6917.919,95.438,540.288,539.28,0.0
52662.0,STARLINK-4044,PAYLOAD,2024-04-24 21:07:34,15.08841518,8.18e-05,53.2194,343.8592,74.7068,285.4015,0.00015876,2.24e-05,0.0,0 STARLINK-4044,1 52662U 22053G   24115.88025509  .00002240  00000-0  15876-3 0  9991,2 52662  53.2194 343.8592 0000818  74.7068 285.4015 15.08841518107813,6917.876,95.437,540.307,539.175,0.0
52662.0,STARLINK-4044,PAYLOAD,2024-04-25 00:18:20,15.08843236,8.58e-05,53.2192,343.2643,61.8667,298.2412,0.00017242,2.458e-05,0.0,0 STARLINK-4044,1 52662U 22053G   24116.01273447  .00002458  00000-0  17242-3 0  9993,2 52662  53.2192 343.2643 0000858  61.8667 298.2412 15.08843236107832,6917.87,95.437,540.329,539.142,0.0
52662.0,STARLINK-4044,PAYLOAD,2024-04-25 20:58:21,15.08842407,0.0001018,53.2191,339.3991,54.6566,305.4521,3.9214e-05,3.36e-06,0.0,0 STARLINK-4044,1 52662U 22053G   24116.87385894  .00000336  00000-0  39214-4 0  9994,2 52662  53.2191 339.3991 0001018  54.6566 305.4521 15.08842407107965,6917.873,95.437,540.442,539.034,0.0
52662.0,STARLINK-4044,PAYLOAD,2024-04-25 22:33:44,15.08843308,0.0001062,53.2192,339.1024,51.487,308.6217,4.1073e-05,3.66e-06,0.0,0 STARLINK-4044,1 52662U 22053G   24116.94009820  .00000366  00000-0  41073-4 0  9993,2 52662  53.2192 339.1024 0001062  51.4870 308.6217 15.08843308107972,6917.87,95.437,540.47,539.001,0.0
52662.0,STARLINK-4044,PAYLOAD,2024-04-26 08:06:02,15.08851916,6.51e-05,53.2182,337.3203,85.7987,274.3079,0.00010326,1.357e-05,0.0,0 STARLINK-4044,1 52662U 22053G   24117.33752692  .00001357  00000-0  10326-3 0  9996,2 52662  53.2182 337.3203 0000651  85.7987 274.3079 15.08851916108039,6917.844,95.437,540.159,539.259,0.0
52662.0,STARLINK-4044,PAYLOAD,2024-04-26 14:27:35,15.08846951,0.0001854,53.2186,336.1322,68.0786,292.0403,9.1127e-05,1.163e-05,0.0,0 STARLINK-4044,1 52662U 22053G   24117.60249408  .00001163  00000-0  91127-4 0  9996,2 52662  53.2186 336.1322 0001854  68.0786 292.0403 15.08846951108074,6917.859,95.437,541.007,538.442,0.0
52662.0,STARLINK-4044,PAYLOAD,2024-04-27 07:56:48,15.08854198,7.77e-05,53.2193,332.8582,94.9711,265.137,0.00019613,2.836e-05,0.0,0 STARLINK-4044,1 52662U 22053G   24118.33112138  .00002836  00000-0  19613-3 0  9993,2 52662  53.2193 332.8582 0000777  94.9711 265.1370 15.08854198108180,6917.837,95.437,540.24,539.164,0.0
52662.0,STARLINK-4044,PAYLOAD,2024-04-27 20:39:55,15.08833727,7.59e-05,53.2185,330.4796,110.5646,249.5428,-6.2336e-05,-1.279e-05,0.0,0 STARLINK-4044,1 52662U 22053G   24118.86106101 -.00001279  00000-0 -62336-4 0  9997,2 52662  53.2185 330.4796 0000759 110.5646 249.5428 15.08833727108268,6917.9,95.438,540.29,539.239,0.0
52662.0,STARLINK-4044,PAYLOAD,2024-04-28 14:09:09,15.08830144,8.27e-05,53.2184,327.2088,111.9213,248.1867,0.00014868,2.079e-05,0.0,0 STARLINK-4044,1 52662U 22053G   24119.58969854  .00002079  00000-0  14868-3 0  9992,2 52662  53.2184 327.2088 0000827 111.9213 248.1867 15.08830144108370,6917.911,95.438,540.348,539.203,0.0
52662.0,STARLINK-4044,PAYLOAD,2024-04-28 20:30:42,15.08833184,4.85e-05,53.2159,326.022,84.0399,276.0648,0.00010522,1.387e-05,0.0,0 STARLINK-4044,1 52662U 22053G   24119.85466021  .00001387  00000-0  10522-3 0  9994,2 52662  53.2159 326.0220 0000485  84.0399 276.0648 15.08833184108411,6917.901,95.438,540.102,539.431,0.0
52662.0,STARLINK-4044,PAYLOAD,2024-04-29 20:21:30,15.08815453,7.31e-05,53.2162,321.5609,100.4316,259.6758,0.00038185,5.791e-05,0.0,0 STARLINK-4044,1 52662U 22053G   24120.84826999  .00005791  00000-0  38185-3 0  9997,2 52662  53.2162 321.5609 0000731 100.4316 259.6758 15.08815453108566,6917.955,95.439,540.326,539.315,0.0
52662.0,STARLINK-4044,PAYLOAD,2024-04-30 05:53:48,15.08842558,6.99e-05,53.2174,319.775,95.3675,264.7397,0.000154,2.164e-05,0.0,0 STARLINK-4044,1 52662U 22053G   24121.24569532  .00002164  00000-0  15400-3 0  9995,2 52662  53.2174 319.7750 0000699  95.3675 264.7397 15.08842558108627,6917.873,95.437,540.221,539.254,0.0
52662.0,STARLINK-4044,PAYLOAD,2024-04-30 20:12:16,15.08838077,8.76e-05,53.22,317.1021,102.5463,257.5627,9.5022e-05,1.225e-05,0.0,0 STARLINK-4044,1 52662U 22053G   24121.84186157  .00001225  00000-0  95022-4 0  9995,2 52662  53.2200 317.1021 0000876 102.5463 257.5627 15.08838077108710,6917.886,95.438,540.357,539.145,0.0
52662.0,STARLINK-4044,PAYLOAD,2024-04-30 21:47:39,15.08838339,7.79e-05,53.2198,316.8045,100.5032,259.6048,8.6643e-05,1.091e-05,0.0,0 STARLINK-4044,1 52662U 22053G   24121.90810153  .00001091  00000-0  86643-4 0  9992,2 52662  53.2198 316.8045 0000779 100.5032 259.6048 15.08838339108722,6917.885,95.438,540.289,539.212,0.0
52662.0,STARLINK-4044,PAYLOAD,2024-05-01 05:44:35,15.08843229,7.04e-05,53.2195,315.3178,93.3327,266.7746,0.00010339,1.358e-05,0.0,0 STARLINK-4044,1 52662U 22053G   24122.23929813  .00001358  00000-0  10339-3 0  9997,2 52662  53.2195 315.3178 0000704  93.3327 266.7746 15.08843229108777,6917.871,95.437,540.223,539.249,0.0
52662.0,STARLINK-4044,PAYLOAD,2024-05-01 21:38:27,15.08836558,9.11e-05,53.2192,312.3436,94.18,265.9297,4.8796e-05,4.89e-06,0.0,0 STARLINK-4044,1 52662U 22053G   24122.90170352  .00000489  00000-0  48796-4 0  9990,2 52662  53.2192 312.3436 0000911  94.1800 265.9297 15.08836558108873,6917.891,95.438,540.386,539.126,0.0
52662.0,STARLINK-4044,PAYLOAD,2024-05-02 11:56:54,15.08847027,0.0001778,53.2172,309.6662,78.8601,281.2591,0.00015544,2.187e-05,0.0,0 STARLINK-4044,1 52662U 22053G   24123.49785602  .00002187  00000-0  15544-3 0  9996,2 52662  53.2172 309.6662 0001778  78.8601 281.2591 15.08847027108962,6917.859,95.437,540.954,538.494,0.0
52662.0,STARLINK-4044,PAYLOAD,2024-05-02 19:53:51,15.08838921,8.51e-05,53.2173,308.178,78.8824,281.2264,1.7131e-05,-1.5e-07,0.0,0 STARLINK-4044,1 52662U 22053G   24123.82906327 -.00000015  00000-0  17131-4 0  9996,2 52662  53.2173 308.1780 0000851  78.8824 281.2264 15.08838921109013,6917.884,95.438,540.337,539.16,0.0
52662.0,STARLINK-4044,PAYLOAD,2024-05-03 11:47:42,15.08840672,8.28e-05,53.2128,305.2073,87.3775,272.7312,8.5039e-05,1.066e-05,0.0,0 STARLINK-4044,1 52662U 22053G   24124.49145839  .00001066  00000-0  85039-4 0  9991,2 52662  53.2128 305.2073 0000828  87.3775 272.7312 15.08840672109116,6917.878,95.438,540.316,539.171,0.0
52662.0,STARLINK-4044,PAYLOAD,2024-05-03 19:44:38,15.08838598,0.000152,53.2162,303.7183,84.7079,275.4087,-4.7114e-05,-1.038e-05,0.0,0 STARLINK-4044,1 52662U 22053G   24124.82266839 -.00001038  00000-0 -47114-4 0  9995,2 52662  53.2162 303.7183 0001520  84.7079 275.4087 15.08838598109165,6917.885,95.438,540.801,538.698,0.0
52662.0,STARLINK-4044,PAYLOAD,2024-05-04 05:16:56,15.08845688,0.0001493,53.2167,301.934,85.3756,274.7406,1.8411e-05,5e-08,0.0,0 STARLINK-4044,1 52662U 22053G   24125.22010179  .00000005  00000-0  18411-4 0  9993,2 52662  53.2167 301.9340 0001493  85.3756 274.7406 15.08845688109225,6917.863,95.437,540.761,538.695,0.0
52662.0,STARLINK-4044,PAYLOAD,2024-05-04 18:00:01,15.0883841,8.22e-05,53.2163,299.5544,92.3941,267.7146,0.00013089,1.796e-05,0.0,0 STARLINK-4044,1 52662U 22053G   24125.75002269  .00001796  00000-0  13089-3 0  9995,2 52662  53.2163 299.5544 0000822  92.3941 267.7146 15.08838410109305,6917.885,95.438,540.319,539.182,0.0
52662.0,STARLINK-4044,PAYLOAD,2024-05-05 11:29:19,15.08808026,2.76e-05,53.2168,296.2836,138.898,221.2033,-5.7713e-05,-1.205e-05,0.0,0 STARLINK-4044,1 52662U 22053G   24126.47869345 -.00001205  00000-0 -57713-4 0  9991,2 52662  53.2168 296.2836 0000276 138.8980 221.2033 15.08808026109412,6917.978,95.44,540.034,539.652,0.0
52662.0,STARLINK-4044,PAYLOAD,2024-05-05 14:40:03,15.08834553,0.0001051,53.2155,295.689,108.0257,252.085,0.00013068,1.792e-05,0.0,0 STARLINK-4044,1 52662U 22053G   24126.61115490  .00001792  00000-0  13068-3 0  9995,2 52662  53.2155 295.6890 0001051 108.0257 252.0850 15.08834553109434,6917.897,95.438,540.489,539.035,0.0
52662.0,STARLINK-4044,PAYLOAD,2024-05-05 21:01:35,15.0884593,7.49e-05,53.2175,294.4982,116.7249,243.3819,0.00018191,2.609e-05,0.0,0 STARLINK-4044,1 52662U 22053G   24126.87610630  .00002609  00000-0  18191-3 0  9999,2 52662  53.2175 294.4982 0000749 116.7249 243.3819 15.08845930109478,6917.862,95.437,540.245,539.209,0.0
52662.0,STARLINK-4044,PAYLOAD,2024-05-06 14:30:49,15.08857787,8.02e-05,53.2173,291.2281,124.692,235.4148,0.00025986,3.852e-05,0.0,0 STARLINK-4044,1 52662U 22053G   24127.60473595  .00003852  00000-0  25986-3 0  9999,2 52662  53.2173 291.2281 0000802 124.6920 235.4148 15.08857787109589,6917.826,95.436,540.246,539.136,0.0
